{
    "links": {
        "self": "http://www.neowsapp.com/rest/v1/neo/3879544?api_key=iIulBulltgU6a56xZRHN4H3l9WmuAYTsLGpBGhQ2"
    },
    "id": "3879544",
    "neo_reference_id": "3879544",
    "name": "(2019 UH5)",
    "designation": "2019 UH5",
    "nasa_jpl_url": "http://ssd.jpl.nasa.gov/sbdb.cgi?sstr=3879544",
    "absolute_magnitude_h": 27.3,
    "estimated_diameter": {
        "kilometers": {
            "estimated_diameter_min": 0.0092162655,
            "estimated_diameter_max": 0.0206081961
        },
        "meters": {
            "estimated_diameter_min": 9.216265485,
            "estimated_diameter_max": 20.6081961232
        },
        "miles": {
            "estimated_diameter_min": 0.0057267201,
            "estimated_diameter_max": 0.0128053354
        },
        "feet": {
            "estimated_diameter_min": 30.2370924539,
            "estimated_diameter_max": 67.6121941689
        }
    },
    "is_potentially_hazardous_asteroid": false,
    "close_approach_data": [
        {
            "close_approach_date": "2014-10-29",
            "close_approach_date_full": "2014-Oct-29 19:08",
            "epoch_date_close_approach": 1414609680000,
            "relative_velocity": {
                "kilometers_per_second": "6.7640548302",
                "kilometers_per_hour": "24350.5973887506",
                "miles_per_hour": "15130.5142496934"
            },
            "miss_distance": {
                "astronomical": "0.062124669",
                "lunar": "24.166496241",
                "kilometers": "9293718.15685503",
                "miles": "5774848.679378214"
            },
            "orbiting_body": "Mars"
        },
        {
            "close_approach_date": "2019-11-05",
            "close_approach_date_full": "2019-Nov-05 19:43",
            "epoch_date_close_approach": 1572982980000,
            "relative_velocity": {
                "kilometers_per_second": "3.5127211075",
                "kilometers_per_hour": "12645.7959870985",
                "miles_per_hour": "7857.605845428"
            },
            "miss_distance": {
                "astronomical": "0.0341521638",
                "lunar": "13.2851917182",
                "kilometers": "5109090.960371106",
                "miles": "3174641.9126730228"
            },
            "orbiting_body": "Earth"
        },
        {
            "close_approach_date": "2024-03-24",
            "close_approach_date_full": "2024-Mar-24 15:22",
            "epoch_date_close_approach": 1711293720000,
            "relative_velocity": {
                "kilometers_per_second": "5.6843734894",
                "kilometers_per_hour": "20463.744561971",
                "miles_per_hour": "12715.3750585203"
            },
            "miss_distance": {
                "astronomical": "0.0035225274",
                "lunar": "1.3702631586",
                "kilometers": "526962.596056638",
                "miles": "327439.3736240844"
            },
            "orbiting_body": "Mars"
        }
    ],
    "orbital_data": {
        "orbit_id": "2",
        "orbit_determination_date": "2019-10-30 08:03:29",
        "first_observation_date": "2019-10-23",
        "last_observation_date": "2019-10-30",
        "data_arc_in_days": 7,
        "observations_used": 14,
        "orbit_uncertainty": "8",
        "minimum_orbit_intersection": ".0333444",
        "jupiter_tisserand_invariant": "4.835",
        "epoch_osculation": "2458780.5",
        "eccentricity": ".2545076295298916",
        "semi_major_axis": "1.35167068622037",
        "inclination": "2.291473908098161",
        "ascending_node_longitude": "8.450368405933649",
        "orbital_period": "573.990586320559",
        "perihelion_distance": "1.007660183965382",
        "perihelion_argument": "51.23168559089624",
        "aphelion_distance": "1.695681188475359",
        "perihelion_time": "2458808.520185458055",
        "mean_anomaly": "342.4260763062997",
        "mean_motion": ".6271879863182097",
        "equinox": "J2000",
        "orbit_class": {
            "orbit_class_type": "APO",
            "orbit_class_description": "Near-Earth asteroid orbits which cross the Earth’s orbit similar to that of 1862 Apollo",
            "orbit_class_range": "a (semi-major axis) > 1.0 AU; q (perihelion) < 1.017 AU"
        }
    },
    "is_sentry_object": false
}